{
    "links": {
        "self": "http://www.neowsapp.com/rest/v1/neo/3378233?api_key=iIulBulltgU6a56xZRHN4H3l9WmuAYTsLGpBGhQ2"
    },
    "id": "3378233",
    "neo_reference_id": "3378233",
    "name": "(2007 LA)",
    "designation": "2007 LA",
    "nasa_jpl_url": "http://ssd.jpl.nasa.gov/sbdb.cgi?sstr=3378233",
    "absolute_magnitude_h": 21.3,
    "estimated_diameter": {
        "kilometers": {
            "estimated_diameter_min": 0.1460679643,
            "estimated_diameter_max": 0.3266178974
        },
        "meters": {
            "estimated_diameter_min": 146.0679642714,
            "estimated_diameter_max": 326.6178974458
        },
        "miles": {
            "estimated_diameter_min": 0.090762397,
            "estimated_diameter_max": 0.2029508896
        },
        "feet": {
            "estimated_diameter_min": 479.2256199,
            "estimated_diameter_max": 1071.581062656
        }
    },
    "is_potentially_hazardous_asteroid": false,
    "close_approach_data": [
        {
            "close_approach_date": "2007-06-06",
            "close_approach_date_full": "2007-Jun-06 08:08",
            "epoch_date_close_approach": 1181117280000,
            "relative_velocity": {
                "kilometers_per_second": "23.2354728055",
                "kilometers_per_hour": "83647.7020997161",
                "miles_per_hour": "51975.4291185708"
            },
            "miss_distance": {
                "astronomical": "0.1325849157",
                "lunar": "51.5755322073",
                "kilometers": "19834420.982849559",
                "miles": "12324537.7023355542"
            },
            "orbiting_body": "Earth"
        }
    ],
    "orbital_data": {
        "orbit_id": "11",
        "orbit_determination_date": "2017-04-06 09:06:24",
        "first_observation_date": "2007-06-06",
        "last_observation_date": "2007-06-15",
        "data_arc_in_days": 9,
        "observations_used": 39,
        "orbit_uncertainty": "9",
        "minimum_orbit_intersection": ".102811",
        "jupiter_tisserand_invariant": "4.086",
        "epoch_osculation": "2454261.5",
        "eccentricity": ".593649772742165",
        "semi_major_axis": "1.551587283382255",
        "inclination": "33.52606816979078",
        "ascending_node_longitude": "245.5846376581621",
        "orbital_period": "705.9317970994971",
        "perihelion_distance": ".630487845212746",
        "perihelion_argument": "107.6592254533796",
        "aphelion_distance": "2.472686721551764",
        "perihelion_time": "2454318.880346068352",
        "mean_anomaly": "330.7380731828754",
        "mean_motion": ".5099642790977158",
        "equinox": "J2000",
        "orbit_class": {
            "orbit_class_type": "APO",
            "orbit_class_description": "Near-Earth asteroid orbits which cross the Earth’s orbit similar to that of 1862 Apollo",
            "orbit_class_range": "a (semi-major axis) > 1.0 AU; q (perihelion) < 1.017 AU"
        }
    },
    "is_sentry_object": false
}